<?xml version="1.0" encoding="UTF-8"?>
<ndm xmlns:xsi="http://www.w3.org/2001/XMLSchema-instance" xsi:noNamespaceSchemaLocation="https://sanaregistry.org/r/ndmxml_unqualified/ndmxml-2.0.0-master-2.0.xsd">
<omm id="CCSDS_OMM_VERS" version="2.0">
<header><CREATION_DATE/><ORIGINATOR/></header><body><segment><metadata><OBJECT_NAME>IRIDIUM 39</OBJECT_NAME><OBJECT_ID>1997-069D</OBJECT_ID><CENTER_NAME>EARTH</CENTER_NAME><REF_FRAME>TEME</REF_FRAME><TIME_SYSTEM>UTC</TIME_SYSTEM><MEAN_ELEMENT_THEORY>SGP4</MEAN_ELEMENT_THEORY></metadata><data><meanElements><EPOCH>2025-12-27T18:54:24.427008</EPOCH><MEAN_MOTION>14.49528035</MEAN_MOTION><ECCENTRICITY>.0018379</ECCENTRICITY><INCLINATION>86.3930</INCLINATION><RA_OF_ASC_NODE>128.1785</RA_OF_ASC_NODE><ARG_OF_PERICENTER>26.1338</ARG_OF_PERICENTER><MEAN_ANOMALY>334.0790</MEAN_ANOMALY></meanElements><tleParameters><EPHEMERIS_TYPE>0</EPHEMERIS_TYPE><CLASSIFICATION_TYPE>U</CLASSIFICATION_TYPE><NORAD_CAT_ID>25042</NORAD_CAT_ID><ELEMENT_SET_NO>999</ELEMENT_SET_NO><REV_AT_EPOCH>47700</REV_AT_EPOCH><BSTAR>.23496E-3</BSTAR><MEAN_MOTION_DOT>.923E-5</MEAN_MOTION_DOT><MEAN_MOTION_DDOT>0</MEAN_MOTION_DDOT></tleParameters></data></segment></body></omm>
<omm id="CCSDS_OMM_VERS" version="2.0">
<header><CREATION_DATE/><ORIGINATOR/></header><body><segment><metadata><OBJECT_NAME>IRIDIUM 38</OBJECT_NAME><OBJECT_ID>1997-069E</OBJECT_ID><CENTER_NAME>EARTH</CENTER_NAME><REF_FRAME>TEME</REF_FRAME><TIME_SYSTEM>UTC</TIME_SYSTEM><MEAN_ELEMENT_THEORY>SGP4</MEAN_ELEMENT_THEORY></metadata><data><meanElements><EPOCH>2025-12-27T20:46:35.897664</EPOCH><MEAN_MOTION>14.38329051</MEAN_MOTION><ECCENTRICITY>.0002787</ECCENTRICITY><INCLINATION>86.3981</INCLINATION><RA_OF_ASC_NODE>151.7476</RA_OF_ASC_NODE><ARG_OF_PERICENTER>136.0530</ARG_OF_PERICENTER><MEAN_ANOMALY>224.0891</MEAN_ANOMALY></meanElements><tleParameters><EPHEMERIS_TYPE>0</EPHEMERIS_TYPE><CLASSIFICATION_TYPE>U</CLASSIFICATION_TYPE><NORAD_CAT_ID>25043</NORAD_CAT_ID><ELEMENT_SET_NO>999</ELEMENT_SET_NO><REV_AT_EPOCH>47379</REV_AT_EPOCH><BSTAR>.20045E-3</BSTAR><MEAN_MOTION_DOT>.63E-5</MEAN_MOTION_DOT><MEAN_MOTION_DDOT>0</MEAN_MOTION_DDOT></tleParameters></data></segment></body></omm>
<omm id="CCSDS_OMM_VERS" version="2.0">
<header><CREATION_DATE/><ORIGINATOR/></header><body><segment><metadata><OBJECT_NAME>IRIDIUM 42</OBJECT_NAME><OBJECT_ID>1997-077A</OBJECT_ID><CENTER_NAME>EARTH</CENTER_NAME><REF_FRAME>TEME</REF_FRAME><TIME_SYSTEM>UTC</TIME_SYSTEM><MEAN_ELEMENT_THEORY>SGP4</MEAN_ELEMENT_THEORY></metadata><data><meanElements><EPOCH>2025-12-27T19:58:02.080128</EPOCH><MEAN_MOTION>14.36545609</MEAN_MOTION><ECCENTRICITY>.0001942</ECCENTRICITY><INCLINATION>86.3985</INCLINATION><RA_OF_ASC_NODE>158.1681</RA_OF_ASC_NODE><ARG_OF_PERICENTER>114.8605</ARG_OF_PERICENTER><MEAN_ANOMALY>245.2794</MEAN_ANOMALY></meanElements><tleParameters><EPHEMERIS_TYPE>0</EPHEMERIS_TYPE><CLASSIFICATION_TYPE>U</CLASSIFICATION_TYPE><NORAD_CAT_ID>25077</NORAD_CAT_ID><ELEMENT_SET_NO>999</ELEMENT_SET_NO><REV_AT_EPOCH>46899</REV_AT_EPOCH><BSTAR>.18526E-3</BSTAR><MEAN_MOTION_DOT>.563E-5</MEAN_MOTION_DOT><MEAN_MOTION_DDOT>0</MEAN_MOTION_DDOT></tleParameters></data></segment></body></omm>
<omm id="CCSDS_OMM_VERS" version="2.0">
<header><CREATION_DATE/><ORIGINATOR/></header><body><segment><metadata><OBJECT_NAME>IRIDIUM 44</OBJECT_NAME><OBJECT_ID>1997-077B</OBJECT_ID><CENTER_NAME>EARTH</CENTER_NAME><REF_FRAME>TEME</REF_FRAME><TIME_SYSTEM>UTC</TIME_SYSTEM><MEAN_ELEMENT_THEORY>SGP4</MEAN_ELEMENT_THEORY></metadata><data><meanElements><EPOCH>2025-12-27T19:39:28.054080</EPOCH><MEAN_MOTION>14.40444792</MEAN_MOTION><ECCENTRICITY>.000389</ECCENTRICITY><INCLINATION>86.3979</INCLINATION><RA_OF_ASC_NODE>139.5923</RA_OF_ASC_NODE><ARG_OF_PERICENTER>101.6769</ARG_OF_PERICENTER><MEAN_ANOMALY>258.4867</MEAN_ANOMALY></meanElements><tleParameters><EPHEMERIS_TYPE>0</EPHEMERIS_TYPE><CLASSIFICATION_TYPE>U</CLASSIFICATION_TYPE><NORAD_CAT_ID>25078</NORAD_CAT_ID><ELEMENT_SET_NO>999</ELEMENT_SET_NO><REV_AT_EPOCH>47157</REV_AT_EPOCH><BSTAR>.15561E-3</BSTAR><MEAN_MOTION_DOT>.514E-5</MEAN_MOTION_DOT><MEAN_MOTION_DDOT>0</MEAN_MOTION_DDOT></tleParameters></data></segment></body></omm>
<omm id="CCSDS_OMM_VERS" version="2.0">
<header><CREATION_DATE/><ORIGINATOR/></header><body><segment><metadata><OBJECT_NAME>IRIDIUM 45</OBJECT_NAME><OBJECT_ID>1997-082A</OBJECT_ID><CENTER_NAME>EARTH</CENTER_NAME><REF_FRAME>TEME</REF_FRAME><TIME_SYSTEM>UTC</TIME_SYSTEM><MEAN_ELEMENT_THEORY>SGP4</MEAN_ELEMENT_THEORY></metadata><data><meanElements><EPOCH>2025-12-27T19:57:55.993248</EPOCH><MEAN_MOTION>15.32297861</MEAN_MOTION><ECCENTRICITY>.0094149</ECCENTRICITY><INCLINATION>86.3542</INCLINATION><RA_OF_ASC_NODE>313.2363</RA_OF_ASC_NODE><ARG_OF_PERICENTER>323.5419</ARG_OF_PERICENTER><MEAN_ANOMALY>35.9442</MEAN_ANOMALY></meanElements><tleParameters><EPHEMERIS_TYPE>0</EPHEMERIS_TYPE><CLASSIFICATION_TYPE>U</CLASSIFICATION_TYPE><NORAD_CAT_ID>25104</NORAD_CAT_ID><ELEMENT_SET_NO>999</ELEMENT_SET_NO><REV_AT_EPOCH>48158</REV_AT_EPOCH><BSTAR>.11557E-2</BSTAR><MEAN_MOTION_DOT>.41643E-3</MEAN_MOTION_DOT><MEAN_MOTION_DDOT>0</MEAN_MOTION_DDOT></tleParameters></data></segment></body></omm>
<omm id="CCSDS_OMM_VERS" version="2.0">
<header><CREATION_DATE/><ORIGINATOR/></header><body><segment><metadata><OBJECT_NAME>IRIDIUM 24</OBJECT_NAME><OBJECT_ID>1997-082B</OBJECT_ID><CENTER_NAME>EARTH</CENTER_NAME><REF_FRAME>TEME</REF_FRAME><TIME_SYSTEM>UTC</TIME_SYSTEM><MEAN_ELEMENT_THEORY>SGP4</MEAN_ELEMENT_THEORY></metadata><data><meanElements><EPOCH>2025-12-27T17:58:10.615008</EPOCH><MEAN_MOTION>14.42341973</MEAN_MOTION><ECCENTRICITY>.0012334</ECCENTRICITY><INCLINATION>86.3907</INCLINATION><RA_OF_ASC_NODE>358.1824</RA_OF_ASC_NODE><ARG_OF_PERICENTER>148.6877</ARG_OF_PERICENTER><MEAN_ANOMALY>211.5061</MEAN_ANOMALY></meanElements><tleParameters><EPHEMERIS_TYPE>0</EPHEMERIS_TYPE><CLASSIFICATION_TYPE>U</CLASSIFICATION_TYPE><NORAD_CAT_ID>25105</NORAD_CAT_ID><ELEMENT_SET_NO>999</ELEMENT_SET_NO><REV_AT_EPOCH>47111</REV_AT_EPOCH><BSTAR>.16974E-3</BSTAR><MEAN_MOTION_DOT>.581E-5</MEAN_MOTION_DOT><MEAN_MOTION_DDOT>0</MEAN_MOTION_DDOT></tleParameters></data></segment></body></omm>
<omm id="CCSDS_OMM_VERS" version="2.0">
<header><CREATION_DATE/><ORIGINATOR/></header><body><segment><metadata><OBJECT_NAME>IRIDIUM 51</OBJECT_NAME><OBJECT_ID>1998-018A</OBJECT_ID><CENTER_NAME>EARTH</CENTER_NAME><REF_FRAME>TEME</REF_FRAME><TIME_SYSTEM>UTC</TIME_SYSTEM><MEAN_ELEMENT_THEORY>SGP4</MEAN_ELEMENT_THEORY></metadata><data><meanElements><EPOCH>2025-12-27T07:15:03.754656</EPOCH><MEAN_MOTION>15.65067859</MEAN_MOTION><ECCENTRICITY>.0046174</ECCENTRICITY><INCLINATION>86.3725</INCLINATION><RA_OF_ASC_NODE>318.7506</RA_OF_ASC_NODE><ARG_OF_PERICENTER>210.3903</ARG_OF_PERICENTER><MEAN_ANOMALY>149.4687</MEAN_ANOMALY></meanElements><tleParameters><EPHEMERIS_TYPE>0</EPHEMERIS_TYPE><CLASSIFICATION_TYPE>U</CLASSIFICATION_TYPE><NORAD_CAT_ID>25262</NORAD_CAT_ID><ELEMENT_SET_NO>999</ELEMENT_SET_NO><REV_AT_EPOCH>47692</REV_AT_EPOCH><BSTAR>.10919E-2</BSTAR><MEAN_MOTION_DOT>.114725E-2</MEAN_MOTION_DOT><MEAN_MOTION_DDOT>0</MEAN_MOTION_DDOT></tleParameters></data></segment></body></omm>
<omm id="CCSDS_OMM_VERS" version="2.0">
<header><CREATION_DATE/><ORIGINATOR/></header><body><segment><metadata><OBJECT_NAME>IRIDIUM 57</OBJECT_NAME><OBJECT_ID>1998-019B</OBJECT_ID><CENTER_NAME>EARTH</CENTER_NAME><REF_FRAME>TEME</REF_FRAME><TIME_SYSTEM>UTC</TIME_SYSTEM><MEAN_ELEMENT_THEORY>SGP4</MEAN_ELEMENT_THEORY></metadata><data><meanElements><EPOCH>2025-12-27T14:43:52.709664</EPOCH><MEAN_MOTION>14.36062478</MEAN_MOTION><ECCENTRICITY>.0002238</ECCENTRICITY><INCLINATION>86.3946</INCLINATION><RA_OF_ASC_NODE>64.1508</RA_OF_ASC_NODE><ARG_OF_PERICENTER>97.4792</ARG_OF_PERICENTER><MEAN_ANOMALY>262.6659</MEAN_ANOMALY></meanElements><tleParameters><EPHEMERIS_TYPE>0</EPHEMERIS_TYPE><CLASSIFICATION_TYPE>U</CLASSIFICATION_TYPE><NORAD_CAT_ID>25273</NORAD_CAT_ID><ELEMENT_SET_NO>999</ELEMENT_SET_NO><REV_AT_EPOCH>45254</REV_AT_EPOCH><BSTAR>.13639E-3</BSTAR><MEAN_MOTION_DOT>.416E-5</MEAN_MOTION_DOT><MEAN_MOTION_DDOT>0</MEAN_MOTION_DDOT></tleParameters></data></segment></body></omm>

</ndm>
