IRIDIUM 39              
1 25042U 97069D   25361.78778272  .00000923  00000+0  23496-3 0  9999
2 25042  86.3930 128.1785 0018379  26.1338 334.0790 14.49528035477002
IRIDIUM 38              
1 25043U 97069E   25361.86569326  .00000630  00000+0  20045-3 0  9999
2 25043  86.3981 151.7476 0002787 136.0530 224.0891 14.38329051473796
IRIDIUM 42              
1 25077U 97077A   25361.83196852  .00000563  00000+0  18526-3 0  9998
2 25077  86.3985 158.1681 0001942 114.8605 245.2794 14.36545609468995
IRIDIUM 44              
1 25078U 97077B   25361.81907470  .00000514  00000+0  15561-3 0  9995
2 25078  86.3979 139.5923 0003890 101.6769 258.4867 14.40444792471571
IRIDIUM 45              
1 25104U 97082A   25361.83189807  .00041643  00000+0  11557-2 0  9997
2 25104  86.3542 313.2363 0094149 323.5419  35.9442 15.32297861481584
IRIDIUM 24              
1 25105U 97082B   25361.74873397  .00000581  00000+0  16974-3 0  9997
2 25105  86.3907 358.1824 0012334 148.6877 211.5061 14.42341973471111
IRIDIUM 51              
1 25262U 98018A   25361.30212679  .00114725  00000+0  10919-2 0  9991
2 25262  86.3725 318.7506 0046174 210.3903 149.4687 15.65067859476929
IRIDIUM 57              
1 25273U 98019B   25361.61380451  .00000416  00000+0  13639-3 0  9996
2 25273  86.3946  64.1508 0002238  97.4792 262.6659 14.36062478452541
